0 TIROS 8 DEB
1 19396U 63054E   13282.34612951  .00001580  00000-0  19980-3 0  1988
2 19396 058.4778 044.8974 0020863 310.5579 049.3650 14.86675029362448
0 TIROS 8 DEB
1 19396U 63054E   13283.35484623  .00001496  00000-0  19039-3 0  1995
2 19396 058.4779 041.0779 0021010 312.1944 047.7317 14.86678501362596
0 TIROS 8 DEB
1 19396U 63054E   13286.31373246  .00001395  00000-0  17912-3 0  2012
2 19396 058.4781 029.8738 0021414 316.9798 042.9573 14.86687192363032
0 TIROS 8 DEB
1 19396U 63054E   13287.79316700  .00002380  00000-0  28866-3 0  2023
2 19396 058.4785 024.2729 0021368 318.7822 041.1609 14.86692127363250
0 TIROS 8 DEB
1 19396U 63054E   13288.80186834  .00002246  00000-0  27378-3 0  2038
2 19396 058.4786 020.4536 0021492 320.4082 039.5394 14.86698393363401
0 TIROS 8 DEB
1 19396U 63054E   13289.87781209  .00002464  00000-0  29798-3 0  2044
2 19396 058.4785 016.3794 0021649 322.1140 037.8381 14.86702087363568
0 TIROS 8 DEB
1 19396U 63054E   13292.23142783  .00002256  00000-0  27470-3 0  2051
2 19396 058.4780 007.4673 0021969 325.7850 034.1779 14.86712807363913
0 TIROS 8 DEB
1 19396U 63054E   13293.77808048  .00002345  00000-0  28457-3 0  2060
2 19396 058.4777 001.6104 0022209 328.1468 031.8233 14.86719726364146
0 TIROS 8 DEB
1 19396U 63054E   13294.78676331  .00002580  00000-0  31059-3 0  2074
2 19396 058.4776 357.7906 0022344 329.6903 030.2849 14.86724776364293
0 TIROS 8 DEB
1 19396U 63054E   13295.79544267  .00002618  00000-0  31481-3 0  2080
2 19396 058.4776 353.9707 0022499 331.2053 028.7749 14.86728386364445
